NORAD_CAT_ID,OBJECT_NAME,OBJECT_TYPE,EPOCH,MEAN_MOTION,ECCENTRICITY,INCLINATION,RA_OF_ASC_NODE,ARG_OF_PERICENTER,MEAN_ANOMALY,BSTAR,MEAN_MOTION_DOT,MEAN_MOTION_DDOT,TLE_LINE0,TLE_LINE1,TLE_LINE2,SEMIMAJOR_AXIS,PERIOD,APOGEE,PERIGEE,DECAYED
53026.0,STARLINK-4119,PAYLOAD,2024-08-04 14:38:49,15.08845095,0.0001435,53.2155,177.0734,88.1872,271.9285,0.0002397,3.529e-05,0.0,0 STARLINK-4119,1 53026U 22076AS  24217.61029986  .00003529  00000-0  23970-3 0  9993,2 53026  53.2155 177.0734 0001435  88.1872 271.9285 15.08845095115113,6917.865,95.437,540.723,538.737,0.0
53026.0,STARLINK-4119,PAYLOAD,2024-08-04 21:00:22,15.08844242,0.0001401,53.2144,175.8854,86.4343,273.681,0.00027386,4.074e-05,0.0,0 STARLINK-4119,1 53026U 22076AS  24217.87526122  .00004074  00000-0  27386-3 0  9996,2 53026  53.2144 175.8854 0001401  86.4343 273.6810 15.08844242115629,6917.867,95.437,540.702,538.763,0.0
53026.0,STARLINK-4119,PAYLOAD,2024-08-05 14:29:37,15.08831431,0.0001883,53.2155,172.6147,77.4227,282.6975,-5.3448e-05,-1.138e-05,0.0,0 STARLINK-4119,1 53026U 22076AS  24218.60390811 -.00001138  00000-0 -53448-4 0  9991,2 53026  53.2155 172.6147 0001883  77.4227 282.6975 15.08831431115736,6917.907,95.438,541.074,538.469,0.0
53026.0,STARLINK-4119,PAYLOAD,2024-08-06 03:12:43,15.08823966,0.0001801,53.216,170.2314,90.153,269.9668,-0.00013738,-2.473e-05,0.0,0 STARLINK-4119,1 53026U 22076AS  24219.13383738 -.00002473  00000-0 -13738-3 0  9990,2 53026  53.2160 170.2314 0001801  90.1530 269.9668 15.08823966115811,6917.929,95.439,541.04,538.548,0.0
53026.0,STARLINK-4119,PAYLOAD,2024-08-06 14:20:25,15.08836776,0.0001947,53.2194,168.1485,96.6965,263.4249,5.1578e-06,-2.06e-06,0.0,0 STARLINK-4119,1 53026U 22076AS  24219.59751419 -.00000206  00000-0  51578-5 0  9992,2 53026  53.2194 168.1485 0001947  96.6965 263.4249 15.08836776115410,6917.89,95.438,541.102,538.408,0.0
53026.0,STARLINK-4119,PAYLOAD,2024-08-07 01:28:06,15.08849471,0.0001831,53.2152,166.0723,65.7216,294.3967,0.00047292,7.248e-05,0.0,0 STARLINK-4119,1 53026U 22076AS  24220.06119149  .00007248  00000-0  47292-3 0  9992,2 53026  53.2152 166.0723 0001831  65.7216 294.3967 15.08849471115959,6917.851,95.437,540.983,538.45,0.0
53026.0,STARLINK-4119,PAYLOAD,2024-08-08 02:54:16,15.08869412,0.0001332,53.216,161.3128,100.2342,259.88,0.00083133,0.00012978,0.0,0 STARLINK-4119,1 53026U 22076AS  24221.12101983  .00012978  00000-0  83133-3 0  9997,2 53026  53.2160 161.3128 0001332 100.2342 259.8800 15.08869412115641,6917.79,95.436,540.577,538.734,0.0
53026.0,STARLINK-4119,PAYLOAD,2024-08-09 02:45:03,15.08855563,0.0001166,53.2162,156.8517,98.4103,261.7022,0.0012172,0.00019145,0.0,0 STARLINK-4119,1 53026U 22076AS  24222.11462161  .00019145  00000-0  12172-2 0  9992,2 53026  53.2162 156.8517 0001166  98.4103 261.7022 15.08855563116261,6917.833,95.437,540.504,538.891,0.0
53026.0,STARLINK-4119,PAYLOAD,2024-08-09 12:17:22,15.08845392,0.0001296,53.2166,155.0671,85.1219,274.9921,0.00047299,7.249e-05,0.0,0 STARLINK-4119,1 53026U 22076AS  24222.51206475  .00007249  00000-0  47299-3 0  9991,2 53026  53.2166 155.0671 0001296  85.1219 274.9921 15.08845392116322,6917.864,95.437,540.625,538.832,0.0
53026.0,STARLINK-4119,PAYLOAD,2024-08-10 04:11:13,15.08849396,0.0001275,53.2158,152.0969,111.1569,248.9559,0.001398,0.00022037,0.0,0 STARLINK-4119,1 53026U 22076AS  24223.17446598  .00022037  00000-0  13980-2 0  9997,2 53026  53.2158 152.0969 0001275 111.1569 248.9559 15.08849396115959,6917.852,95.437,540.599,538.835,0.0
53026.0,STARLINK-4119,PAYLOAD,2024-08-11 02:26:37,15.08851297,0.0001274,53.2159,147.9274,106.7255,253.3877,0.00050535,7.766e-05,0.0,0 STARLINK-4119,1 53026U 22076AS  24224.10182363  .00007766  00000-0  50535-3 0  9998,2 53026  53.2159 147.9274 0001274 106.7255 253.3877 15.08851297116567,6917.846,95.437,540.592,538.83,0.0
53026.0,STARLINK-4119,PAYLOAD,2024-08-11 05:37:23,15.08861413,0.0001207,53.216,147.3349,98.6556,261.4572,0.00094141,0.00014735,0.0,0 STARLINK-4119,1 53026U 22076AS  24224.23430170  .00014735  00000-0  94141-3 0  9999,2 53026  53.2160 147.3349 0001207  98.6556 261.4572 15.08861413116580,6917.815,95.436,540.515,538.845,0.0
53026.0,STARLINK-4119,PAYLOAD,2024-08-12 03:52:47,15.08865371,0.0001209,53.2139,143.1734,92.7778,267.3353,0.00098403,0.00015418,0.0,0 STARLINK-4119,1 53026U 22076AS  24225.16165884  .00015418  00000-0  98403-3 0  9993,2 53026  53.2139 143.1734 0001209  92.7778 267.3353 15.08865371116726,6917.803,95.436,540.504,538.831,0.0
53026.0,STARLINK-4119,PAYLOAD,2024-08-12 11:49:42,15.08851238,9.78e-05,53.2151,141.6873,112.5757,247.5339,0.00058563,9.048e-05,0.0,0 STARLINK-4119,1 53026U 22076AS  24225.49285777  .00009048  00000-0  58563-3 0  9998,2 53026  53.2151 141.6873 0000978 112.5757 247.5339 15.08851238116773,6917.846,95.437,540.388,539.034,0.0
53026.0,STARLINK-4119,PAYLOAD,2024-08-12 22:57:24,15.08866248,0.0001775,53.2127,139.6075,91.625,268.4945,0.001733,0.0002742,0.0,0 STARLINK-4119,1 53026U 22076AS  24225.95653579  .00027420  00000-0  17330-2 0  9998,2 53026  53.2127 139.6075 0001775  91.6250 268.4945 15.08866248116376,6917.8,95.436,540.893,538.437,0.0
53026.0,STARLINK-4119,PAYLOAD,2024-08-13 02:08:12,15.08803701,0.0001307,53.2146,139.0106,94.8225,265.2916,-0.0007388,-0.00012015,0.0,0 STARLINK-4119,1 53026U 22076AS  24226.08902782 -.00012015  00000-0 -73880-3 0  9995,2 53026  53.2146 139.0106 0001307  94.8225 265.2916 15.08803701116866,6917.991,95.44,540.761,538.952,0.0
53026.0,STARLINK-4119,PAYLOAD,2024-08-13 11:40:32,15.08765537,0.0001501,53.2159,137.2257,88.8374,271.279,-0.0015028,-0.00024077,0.0,0 STARLINK-4119,1 53026U 22076AS  24226.48649054 -.00024077  00000-0 -15028-2 0  9999,2 53026  53.2159 137.2257 0001501  88.8374 271.2790 15.08765537116929,6918.108,95.442,541.011,538.935,0.0
53026.0,STARLINK-4119,PAYLOAD,2024-08-13 22:48:15,15.08798815,0.0001375,53.2143,135.1435,79.2273,280.8874,0.00086883,0.00013551,0.0,0 STARLINK-4119,1 53026U 22076AS  24226.95018307  .00013551  00000-0  86883-3 0  9993,2 53026  53.2143 135.1435 0001375  79.2273 280.8874 15.08798815116528,6918.006,95.44,540.823,538.92,0.0
53026.0,STARLINK-4119,PAYLOAD,2024-08-14 03:34:24,15.0883456,0.0001523,53.2148,134.2514,95.3671,264.7495,0.0022301,0.00035377,0.0,0 STARLINK-4119,1 53026U 22076AS  24227.14890021  .00035377  00000-0  22301-2 0  9990,2 53026  53.2148 134.2514 0001523  95.3671 264.7495 15.08834560117021,6917.897,95.438,540.816,538.708,0.0
53026.0,STARLINK-4119,PAYLOAD,2024-08-14 11:31:20,15.08845521,0.0001568,53.2157,132.764,96.4813,263.6358,0.0016404,0.00025919,0.0,0 STARLINK-4119,1 53026U 22076AS  24227.48009938  .00025919  00000-0  16404-2 0  9994,2 53026  53.2157 132.7640 0001568  96.4813 263.6358 15.08845521116601,6917.864,95.437,540.813,538.644,0.0
53026.0,STARLINK-4119,PAYLOAD,2024-08-14 22:39:01,15.08883892,0.0001786,53.2156,130.6799,103.7884,256.3307,0.0011366,0.00017869,0.0,0 STARLINK-4119,1 53026U 22076AS  24227.94376445  .00017869  00000-0  11366-2 0  9992,2 53026  53.2156 130.6799 0001786 103.7884 256.3307 15.08883892116677,6917.746,95.435,540.847,538.376,0.0
53026.0,STARLINK-4119,PAYLOAD,2024-08-15 00:14:24,15.08881733,0.0001425,53.2165,130.3871,83.9389,276.1765,0.00091146,0.00014264,0.0,0 STARLINK-4119,1 53026U 22076AS  24228.01000370  .00014264  00000-0  91146-3 0  9993,2 53026  53.2165 130.3871 0001425  83.9389 276.1765 15.08881733117158,6917.753,95.435,540.604,538.632,0.0
53026.0,STARLINK-4119,PAYLOAD,2024-08-15 22:29:47,15.08866251,0.0001249,53.216,126.2241,97.6315,262.4819,0.00044262,6.768e-05,0.0,0 STARLINK-4119,1 53026U 22076AS  24228.93735436  .00006768  00000-0  44262-3 0  9999,2 53026  53.2160 126.2241 0001249  97.6315 262.4819 15.08866251116822,6917.8,95.436,540.529,538.801,0.0
53026.0,STARLINK-4119,PAYLOAD,2024-08-16 00:05:10,15.08861399,0.0001313,53.2162,125.9263,96.0852,264.0289,0.00027414,4.08e-05,0.0,0 STARLINK-4119,1 53026U 22076AS  24229.00359363  .00004080  00000-0  27414-3 0  9994,2 53026  53.2162 125.9263 0001313  96.0852 264.0289 15.08861399117306,6917.815,95.436,540.588,538.772,0.0
53026.0,STARLINK-4119,PAYLOAD,2024-08-17 03:06:43,15.08846138,0.0001318,53.2157,120.8716,93.9121,266.2022,0.0010157,0.00015917,0.0,0 STARLINK-4119,1 53026U 22076AS  24230.12967569  .00015917  00000-0  10157-2 0  9998,2 53026  53.2157 120.8716 0001318  93.9121 266.2022 15.08846138117478,6917.862,95.437,540.638,538.815,0.0
53026.0,STARLINK-4119,PAYLOAD,2024-08-17 22:11:21,15.0883692,0.0001479,53.2161,117.2972,123.4983,236.6151,0.00055484,8.553e-05,0.0,0 STARLINK-4119,1 53026U 22076AS  24230.92455789  .00008553  00000-0  55484-3 0  9993,2 53026  53.2161 117.2972 0001479 123.4983 236.6151 15.08836920117595,6917.89,95.438,540.778,538.732,0.0
53026.0,STARLINK-4119,PAYLOAD,2024-08-18 20:26:46,15.08838144,0.0001195,53.2153,113.1423,63.0365,297.0749,0.00035046,5.294e-05,0.0,0 STARLINK-4119,1 53026U 22076AS  24231.85192632  .00005294  00000-0  35046-3 0  9992,2 53026  53.2153 113.1423 0001195  63.0365 297.0749 15.08838144117730,6917.886,95.438,540.578,538.924,0.0
53026.0,STARLINK-4119,PAYLOAD,2024-08-18 22:02:09,15.08838527,0.0001372,53.216,112.8458,68.205,291.9088,0.00036246,5.485e-05,0.0,0 STARLINK-4119,1 53026U 22076AS  24231.91816683  .00005485  00000-0  36246-3 0  9993,2 53026  53.2160 112.8458 0001372  68.2050 291.9088 15.08838527117270,6917.885,95.438,540.699,538.801,0.0
53026.0,STARLINK-4119,PAYLOAD,2024-08-19 01:12:55,15.08845122,0.00012,53.2152,112.2484,91.5392,268.5738,0.00051557,7.928e-05,0.0,0 STARLINK-4119,1 53026U 22076AS  24232.05064392  .00007928  00000-0  51557-3 0  9997,2 53026  53.2152 112.2484 0001200  91.5392 268.5738 15.08845122117295,6917.865,95.437,540.56,538.9,0.0
53026.0,STARLINK-4119,PAYLOAD,2024-08-20 01:03:42,15.08843674,0.0001438,53.2155,107.7836,129.0446,231.0675,0.00032625,4.909e-05,0.0,0 STARLINK-4119,1 53026U 22076AS  24233.04424416  .00004909  00000-0  32625-3 0  9995,2 53026  53.2155 107.7836 0001438 129.0446 231.0675 15.08843674117912,6917.869,95.437,540.729,538.739,0.0
